{
  "type": "FeatureCollection",
  "features": [
    {
      "type": "Feature",
      "properties": {
        "norad_id": 41877,
        "name": "RESOURCESAT-2A",
        "group": "resource",
        "lat": 53.58489620788713,
        "lon": -120.70962503136812,
        "alt_km": 815.7315181091462,
        "timestamp": "2025-12-03T06:58:42.898807+00:00",
        "meta_object_name": "RESOURCESAT-2A",
        "meta_object_id": "2016-074A",
        "meta_epoch": "2025-12-02T20:15:19.394208",
        "meta_mean_motion": 14.21592495,
        "meta_eccentricity": 0.0001173,
        "meta_inclination": 98.7768,
        "meta_ra_of_asc_node": 46.7571,
        "meta_arg_of_pericenter": 304.5647,
        "meta_mean_anomaly": 55.5419,
        "meta_ephemeris_type": 0,
        "meta_classification_type": "U",
        "meta_norad_cat_id": 41877,
        "meta_element_set_no": 999,
        "meta_rev_at_epoch": 46640,
        "meta_bstar": 0.00012078,
        "meta_mean_motion_dot": 2.2e-06,
        "meta_mean_motion_ddot": 0,
        "tle_line1": "1 41877U 16074A   25336.84397447  .00000220  00000+0  12078-3 0  9994",
        "tle_line2": "2 41877  98.7768  46.7571 0001173 304.5647  55.5419 14.21592495466406"
      },
      "geometry": {
        "type": "Point",
        "coordinates": [
          -120.70962503136812,
          53.58489620788713
        ]
      }
    },
    {
      "type": "Feature",
      "properties": {
        "norad_id": 41948,
        "name": "CARTOSAT-2D",
        "group": "resource",
        "lat": 56.10647019337972,
        "lon": 23.714622570292338,
        "alt_km": 505.18102755268865,
        "timestamp": "2025-12-03T06:58:42.898818+00:00",
        "meta_object_name": "CARTOSAT-2D",
        "meta_object_id": "2017-008A",
        "meta_epoch": "2025-12-03T00:24:23.291136",
        "meta_mean_motion": 15.19334623,
        "meta_eccentricity": 0.0004903,
        "meta_inclination": 97.4404,
        "meta_ra_of_asc_node": 34.662,
        "meta_arg_of_pericenter": 199.6362,
        "meta_mean_anomaly": 160.4684,
        "meta_ephemeris_type": 0,
        "meta_classification_type": "U",
        "meta_norad_cat_id": 41948,
        "meta_element_set_no": 999,
        "meta_rev_at_epoch": 48779,
        "meta_bstar": 2.7501e-06,
        "meta_mean_motion_dot": -9e-08,
        "meta_mean_motion_ddot": 0,
        "tle_line1": "1 41948U 17008A   25337.01693624 -.00000009  00000+0  27501-5 0  9992",
        "tle_line2": "2 41948  97.4404  34.6620 0004903 199.6362 160.4684 15.19334623487790"
      },
      "geometry": {
        "type": "Point",
        "coordinates": [
          23.714622570292338,
          56.10647019337972
        ]
      }
    },
    {
      "type": "Feature",
      "properties": {
        "norad_id": 42063,
        "name": "SENTINEL-2B",
        "group": "resource",
        "lat": 38.33407881424854,
        "lon": -123.28068664424471,
        "alt_km": 785.5615408378853,
        "timestamp": "2025-12-03T06:58:42.898828+00:00",
        "meta_object_name": "SENTINEL-2B",
        "meta_object_id": "2017-013A",
        "meta_epoch": "2025-12-02T20:15:05.750784",
        "meta_mean_motion": 14.30809493,
        "meta_eccentricity": 0.0001118,
        "meta_inclination": 98.5727,
        "meta_ra_of_asc_node": 49.4283,
        "meta_arg_of_pericenter": 98.4833,
        "meta_mean_anomaly": 261.6477,
        "meta_ephemeris_type": 0,
        "meta_classification_type": "U",
        "meta_norad_cat_id": 42063,
        "meta_element_set_no": 999,
        "meta_rev_at_epoch": 45656,
        "meta_bstar": 0.0001016,
        "meta_mean_motion_dot": 2.23e-06,
        "meta_mean_motion_ddot": 0,
        "tle_line1": "1 42063U 17013A   25336.84381656  .00000223  00000+0  10160-3 0  9994",
        "tle_line2": "2 42063  98.5727  49.4283 0001118  98.4833 261.6477 14.30809493456561"
      },
      "geometry": {
        "type": "Point",
        "coordinates": [
          -123.28068664424471,
          38.33407881424854
        ]
      }
    },
    {
      "type": "Feature",
      "properties": {
        "norad_id": 42767,
        "name": "CARTOSAT-2E",
        "group": "resource",
        "lat": -32.62687189000384,
        "lon": 39.81131446236656,
        "alt_km": 513.2717845605102,
        "timestamp": "2025-12-03T06:58:42.898839+00:00",
        "meta_object_name": "CARTOSAT-2E",
        "meta_object_id": "2017-036C",
        "meta_epoch": "2025-12-02T20:03:26.915616",
        "meta_mean_motion": 15.19159451,
        "meta_eccentricity": 0.0002354,
        "meta_inclination": 97.4579,
        "meta_ra_of_asc_node": 34.5515,
        "meta_arg_of_pericenter": 290.9445,
        "meta_mean_anomaly": 69.1537,
        "meta_ephemeris_type": 0,
        "meta_classification_type": "U",
        "meta_norad_cat_id": 42767,
        "meta_element_set_no": 999,
        "meta_rev_at_epoch": 46833,
        "meta_bstar": 0.00035794,
        "meta_mean_motion_dot": 7.459e-05,
        "meta_mean_motion_ddot": 0,
        "tle_line1": "1 42767U 17036C   25336.83572819  .00007459  00000+0  35794-3 0  9990",
        "tle_line2": "2 42767  97.4579  34.5515 0002354 290.9445  69.1537 15.19159451468335"
      },
      "geometry": {
        "type": "Point",
        "coordinates": [
          39.81131446236656,
          -32.62687189000384
        ]
      }
    },
    {
      "type": "Feature",
      "properties": {
        "norad_id": 42920,
        "name": "FORMOSAT-5",
        "group": "resource",
        "lat": 2.299112116878782,
        "lon": -127.86961538545884,
        "alt_km": 731.40262174502,
        "timestamp": "2025-12-03T06:58:42.898849+00:00",
        "meta_object_name": "FORMOSAT-5",
        "meta_object_id": "2017-049A",
        "meta_epoch": "2025-12-02T18:34:38.027136",
        "meta_mean_motion": 14.50995301,
        "meta_eccentricity": 0.0010347,
        "meta_inclination": 98.2464,
        "meta_ra_of_asc_node": 51.2903,
        "meta_arg_of_pericenter": 328.7715,
        "meta_mean_anomaly": 31.2864,
        "meta_ephemeris_type": 0,
        "meta_classification_type": "U",
        "meta_norad_cat_id": 42920,
        "meta_element_set_no": 999,
        "meta_rev_at_epoch": 43819,
        "meta_bstar": 9.5697e-05,
        "meta_mean_motion_dot": 3.35e-06,
        "meta_mean_motion_ddot": 0,
        "tle_line1": "1 42920U 17049A   25336.77405124  .00000335  00000+0  95697-4 0  9997",
        "tle_line2": "2 42920  98.2464  51.2903 0010347 328.7715  31.2864 14.50995301438196"
      },
      "geometry": {
        "type": "Point",
        "coordinates": [
          -127.86961538545884,
          2.299112116878782
        ]
      }
    },
    {
      "type": "Feature",
      "properties": {
        "norad_id": 42969,
        "name": "SENTINEL-5P",
        "group": "resource",
        "lat": -22.12622945510753,
        "lon": 92.35778237415364,
        "alt_km": 832.6125113355729,
        "timestamp": "2025-12-03T06:58:42.898860+00:00",
        "meta_object_name": "SENTINEL-5P",
        "meta_object_id": "2017-064A",
        "meta_epoch": "2025-12-02T19:52:43.055040",
        "meta_mean_motion": 14.19513361,
        "meta_eccentricity": 9.39e-05,
        "meta_inclination": 98.7769,
        "meta_ra_of_asc_node": 275.501,
        "meta_arg_of_pericenter": 85.694,
        "meta_mean_anomaly": 274.4343,
        "meta_ephemeris_type": 0,
        "meta_classification_type": "U",
        "meta_norad_cat_id": 42969,
        "meta_element_set_no": 999,
        "meta_rev_at_epoch": 42170,
        "meta_bstar": 7.5126e-05,
        "meta_mean_motion_dot": 1.14e-06,
        "meta_mean_motion_ddot": 0,
        "tle_line1": "1 42969U 17064A   25336.82827610  .00000114  00000+0  75126-4 0  9991",
        "tle_line2": "2 42969  98.7769 275.5010 0000939  85.6940 274.4343 14.19513361421706"
      },
      "geometry": {
        "type": "Point",
        "coordinates": [
          92.35778237415364,
          -22.12622945510753
        ]
      }
    },
    {
      "type": "Feature",
      "properties": {
        "norad_id": 42987,
        "name": "SKYSAT-C11",
        "group": "resource",
        "lat": -57.745679991661945,
        "lon": 126.46062735267714,
        "alt_km": 433.7654730035001,
        "timestamp": "2025-12-03T06:58:42.898870+00:00",
        "meta_object_name": "SKYSAT-C11",
        "meta_object_id": "2017-068A",
        "meta_epoch": "2025-12-02T20:21:47.418336",
        "meta_mean_motion": 15.46813099,
        "meta_eccentricity": 9.33e-05,
        "meta_inclination": 97.4134,
        "meta_ra_of_asc_node": 114.1004,
        "meta_arg_of_pericenter": 118.2693,
        "meta_mean_anomaly": 241.8651,
        "meta_ephemeris_type": 0,
        "meta_classification_type": "U",
        "meta_norad_cat_id": 42987,
        "meta_element_set_no": 999,
        "meta_rev_at_epoch": 45278,
        "meta_bstar": 0.00054531,
        "meta_mean_motion_dot": 0.00027318,
        "meta_mean_motion_ddot": 0,
        "tle_line1": "1 42987U 17068A   25336.84846549  .00027318  00000+0  54531-3 0  9990",
        "tle_line2": "2 42987  97.4134 114.1004 0000933 118.2693 241.8651 15.46813099452785"
      },
      "geometry": {
        "type": "Point",
        "coordinates": [
          126.46062735267714,
          -57.745679991661945
        ]
      }
    }
  ]
}